{"type": "FeatureCollection", "features": [ {"type": "Feature", "properties": {"norad_id": 33153, "name": "INTELSAT 25 (IS-25)", "group": "intelsat", "lat": 1.3869708685837678, "lon": 119.761769789545, "alt_km": 35803.5375969438, "timestamp": "2025-12-24T03:53:29.310050+00:00", "meta": {"OBJECT_NAME": "INTELSAT 25 (IS-25)", "OBJECT_ID": "2008-034A", "EPOCH": "2025-12-23T18:07:08.131872", "MEAN_MOTION": 1.00272495, "ECCENTRICITY": 0.0004853, "INCLINATION": 2.2543, "RA_OF_ASC_NODE": 82.5322, "ARG_OF_PERICENTER": 187.1953, "MEAN_ANOMALY": 63.098, "EPHEMERIS_TYPE": 0, "CLASSIFICATION_TYPE": "U", "NORAD_CAT_ID": 33153, "ELEMENT_SET_NO": 999, "REV_AT_EPOCH": 6393, "BSTAR": 0, "MEAN_MOTION_DOT": -2.04e-06, "MEAN_MOTION_DDOT": 0}, "tle": {"line1": "1 33153U 08034A   25357.75495523 -.00000204  00000+0  00000+0 0  9997", "line2": "2 33153   2.2543  82.5322 0004853 187.1953  63.0980  1.00272495 63936"}}, "geometry": {"type": "Point", "coordinates": [119.761769789545, 1.3869708685837678]}}, {"type": "Feature", "properties": {"norad_id": 33376, "name": "GALAXY 19 (G-19)", "group": "intelsat", "lat": 0.03438421782743648, "lon": 54.322665604530094, "alt_km": 35794.15818030984, "timestamp": "2025-12-24T03:53:29.310063+00:00", "meta": {"OBJECT_NAME": "GALAXY 19 (G-19)", "OBJECT_ID": "2008-045A", "EPOCH": "2025-12-23T16:05:42.260064", "MEAN_MOTION": 1.00270858, "ECCENTRICITY": 0.0002654, "INCLINATION": 0.0449, "RA_OF_ASC_NODE": 265.3019, "ARG_OF_PERICENTER": 15.087, "MEAN_ANOMALY": 316.4894, "EPHEMERIS_TYPE": 0, "CLASSIFICATION_TYPE": "U", "NORAD_CAT_ID": 33376, "ELEMENT_SET_NO": 999, "REV_AT_EPOCH": 6314, "BSTAR": 0, "MEAN_MOTION_DOT": -1.18e-06, "MEAN_MOTION_DDOT": 0}, "tle": {"line1": "1 33376U 08045A   25357.67062801 -.00000118  00000+0  00000+0 0  9990", "line2": "2 33376   0.0449 265.3019 0002654  15.0870 316.4894  1.00270858 63145"}}, "geometry": {"type": "Point", "coordinates": [54.322665604530094, 0.03438421782743648]}}, {"type": "Feature", "properties": {"norad_id": 35493, "name": "FM-5", "group": "intelsat", "lat": 0.024757332143126014, "lon": 65.15388639107759, "alt_km": 35786.69497898858, "timestamp": "2025-12-24T03:53:29.310075+00:00", "meta": {"OBJECT_NAME": "FM-5", "OBJECT_ID": "2009-034A", "EPOCH": "2025-12-23T13:27:39.384864", "MEAN_MOTION": 1.00270229, "ECCENTRICITY": 9.59e-05, "INCLINATION": 0.0224, "RA_OF_ASC_NODE": 290.4125, "ARG_OF_PERICENTER": 226.9305, "MEAN_ANOMALY": 50.7811, "EPHEMERIS_TYPE": 0, "CLASSIFICATION_TYPE": "U", "NORAD_CAT_ID": 35493, "ELEMENT_SET_NO": 999, "REV_AT_EPOCH": 4488, "BSTAR": 0, "MEAN_MOTION_DOT": -1.79e-06, "MEAN_MOTION_DDOT": 0}, "tle": {"line1": "1 35493U 09034A   25357.56087251 -.00000179  00000+0  00000+0 0  9992", "line2": "2 35493   0.0224 290.4125 0000959 226.9305  50.7811  1.00270229 44886"}}, "geometry": {"type": "Point", "coordinates": [65.15388639107759, 0.024757332143126014]}}, {"type": "Feature", "properties": {"norad_id": 36097, "name": "INTELSAT 14 (IS-14)", "group": "intelsat", "lat": 0.03455203719738174, "lon": 106.2956004043426, "alt_km": 35797.71114561528, "timestamp": "2025-12-24T03:53:29.310087+00:00", "meta": {"OBJECT_NAME": "INTELSAT 14 (IS-14)", "OBJECT_ID": "2009-064A", "EPOCH": "2025-12-23T18:03:16.001856", "MEAN_MOTION": 1.00269399, "ECCENTRICITY": 0.0002579, "INCLINATION": 0.0123, "RA_OF_ASC_NODE": 2.7287, "ARG_OF_PERICENTER": 282.3541, "MEAN_ANOMALY": 33.2641, "EPHEMERIS_TYPE": 0, "CLASSIFICATION_TYPE": "U", "NORAD_CAT_ID": 36097, "ELEMENT_SET_NO": 999, "REV_AT_EPOCH": 5884, "BSTAR": 0, "MEAN_MOTION_DOT": -2.53e-06, "MEAN_MOTION_DDOT": 0}, "tle": {"line1": "1 36097U 09064A   25357.75226854 -.00000253  00000+0  00000+0 0  9994", "line2": "2 36097   0.0123   2.7287 0002579 282.3541  33.2641  1.00269399 58840"}}, "geometry": {"type": "Point", "coordinates": [106.2956004043426, 0.03455203719738174]}}, {"type": "Feature", "properties": {"norad_id": 36106, "name": "INTELSAT 15 (IS-15)", "group": "intelsat", "lat": -0.025179136150482458, "lon": -123.55292776442074, "alt_km": 35779.92439404621, "timestamp": "2025-12-24T03:53:29.310099+00:00", "meta": {"OBJECT_NAME": "INTELSAT 15 (IS-15)", "OBJECT_ID": "2009-067A", "EPOCH": "2025-12-23T19:22:21.379296", "MEAN_MOTION": 1.0027099, "ECCENTRICITY": 0.0002272, "INCLINATION": 0.017, "RA_OF_ASC_NODE": 21.2143, "ARG_OF_PERICENTER": 263.5803, "MEAN_ANOMALY": 183.5466, "EPHEMERIS_TYPE": 0, "CLASSIFICATION_TYPE": "U", "NORAD_CAT_ID": 36106, "ELEMENT_SET_NO": 999, "REV_AT_EPOCH": 3947, "BSTAR": 0, "MEAN_MOTION_DOT": -1.64e-06, "MEAN_MOTION_DDOT": 0}, "tle": {"line1": "1 36106U 09067A   25357.80719189 -.00000164  00000+0  00000+0 0  9993", "line2": "2 36106   0.0170  21.2143 0002272 263.5803 183.5466  1.00270990 39473"}}, "geometry": {"type": "Point", "coordinates": [-123.55292776442074, -0.025179136150482458]}}, {"type": "Feature", "properties": {"norad_id": 36131, "name": "DIRECTV 12", "group": "intelsat", "lat": 0.000573067928146813, "lon": 48.59676606997643, "alt_km": 35785.487787323, "timestamp": "2025-12-24T03:53:29.310111+00:00", "meta": {"OBJECT_NAME": "DIRECTV 12", "OBJECT_ID": "2009-075A", "EPOCH": "2025-12-23T03:20:33.607968", "MEAN_MOTION": 1.00270962, "ECCENTRICITY": 4.713e-05, "INCLINATION": 0.0146, "RA_OF_ASC_NODE": 102.798, "ARG_OF_PERICENTER": 240.9424, "MEAN_ANOMALY": 55.6205, "EPHEMERIS_TYPE": 0, "CLASSIFICATION_TYPE": "U", "NORAD_CAT_ID": 36131, "ELEMENT_SET_NO": 999, "REV_AT_EPOCH": 4478, "BSTAR": 0, "MEAN_MOTION_DOT": -8.2e-07, "MEAN_MOTION_DDOT": 0}, "tle": {"line1": "1 36131U 09075A   25357.13927787 -.00000082  00000+0  00000+0 0  9990", "line2": "2 36131   0.0146 102.7980 0000471 240.9424  55.6205  1.00270962 44784"}}, "geometry": {"type": "Point", "coordinates": [48.59676606997643, 0.000573067928146813]}}, {"type": "Feature", "properties": {"norad_id": 36397, "name": "INTELSAT 16 (IS-16)", "group": "intelsat", "lat": 0.026911726170494598, "lon": 75.12220528325724, "alt_km": 35793.66127489976, "timestamp": "2025-12-24T03:53:29.310123+00:00", "meta": {"OBJECT_NAME": "INTELSAT 16 (IS-16)", "OBJECT_ID": "2010-006A", "EPOCH": "2025-12-23T12:46:10.935264", "MEAN_MOTION": 1.00272728, "ECCENTRICITY": 0.0001884, "INCLINATION": 0.0115, "RA_OF_ASC_NODE": 325.676, "ARG_OF_PERICENTER": 301.9136, "MEAN_ANOMALY": 300.0848, "EPHEMERIS_TYPE": 0, "CLASSIFICATION_TYPE": "U", "NORAD_CAT_ID": 36397, "ELEMENT_SET_NO": 999, "REV_AT_EPOCH": 5789, "BSTAR": 0, "MEAN_MOTION_DOT": -2.24e-06, "MEAN_MOTION_DDOT": 0}, "tle": {"line1": "1 36397U 10006A   25357.53207101 -.00000224  00000+0  00000+0 0  9993", "line2": "2 36397   0.0115 325.6760 0001884 301.9136 300.0848  1.00272728 57891"}}, "geometry": {"type": "Point", "coordinates": [75.12220528325724, 0.026911726170494598]}}, {"type": "Feature", "properties": {"norad_id": 37185, "name": "XM-5", "group": "intelsat", "lat": 0.059444389516959635, "lon": 36.09248940897251, "alt_km": 35789.93309753716, "timestamp": "2025-12-24T03:53:29.310136+00:00", "meta": {"OBJECT_NAME": "XM-5", "OBJECT_ID": "2010-053A", "EPOCH": "2025-12-23T00:36:02.072736", "MEAN_MOTION": 1.00270944, "ECCENTRICITY": 0.00022817, "INCLINATION": 0.0686, "RA_OF_ASC_NODE": 269.8014, "ARG_OF_PERICENTER": 238.9496, "MEAN_ANOMALY": 196.8907, "EPHEMERIS_TYPE": 0, "CLASSIFICATION_TYPE": "U", "NORAD_CAT_ID": 37185, "ELEMENT_SET_NO": 999, "REV_AT_EPOCH": 5571, "BSTAR": 0, "MEAN_MOTION_DOT": -2e-08, "MEAN_MOTION_DDOT": 0}, "tle": {"line1": "1 37185U 10053A   25357.02502399 -.00000002  00000+0  00000+0 0  9996", "line2": "2 37185   0.0686 269.8014 0002281 238.9496 196.8907  1.00270944 55715"}}, "geometry": {"type": "Point", "coordinates": [36.09248940897251, 0.059444389516959635]}}, {"type": "Feature", "properties": {"norad_id": 37238, "name": "INTELSAT 17 (IS-17)", "group": "intelsat", "lat": -0.015066226141780615, "lon": -142.73384026661637, "alt_km": 35781.214976780604, "timestamp": "2025-12-24T03:53:29.310148+00:00", "meta": {"OBJECT_NAME": "INTELSAT 17 (IS-17)", "OBJECT_ID": "2010-065B", "EPOCH": "2025-12-23T20:08:10.769856", "MEAN_MOTION": 1.00271482, "ECCENTRICITY": 0.0002671, "INCLINATION": 0.0047, "RA_OF_ASC_NODE": 324.7466, "ARG_OF_PERICENTER": 316.6869, "MEAN_ANOMALY": 179.2214, "EPHEMERIS_TYPE": 0, "CLASSIFICATION_TYPE": "U", "NORAD_CAT_ID": 37238, "ELEMENT_SET_NO": 999, "REV_AT_EPOCH": 5149, "BSTAR": 0, "MEAN_MOTION_DOT": 2e-07, "MEAN_MOTION_DDOT": 0}, "tle": {"line1": "1 37238U 10065B   25357.83901354  .00000020  00000+0  00000+0 0  9990", "line2": "2 37238   0.0047 324.7466 0002671 316.6869 179.2214  1.00271482 51493"}}, "geometry": {"type": "Point", "coordinates": [-142.73384026661637, -0.015066226141780615]}}, {"type": "Feature", "properties": {"norad_id": 37392, "name": "INTELSAT 28 (IS-28)", "group": "intelsat", "lat": 0.7905679718912905, "lon": 119.5718867828027, "alt_km": 35799.59860139445, "timestamp": "2025-12-24T03:53:29.310160+00:00", "meta": {"OBJECT_NAME": "INTELSAT 28 (IS-28)", "OBJECT_ID": "2011-016A", "EPOCH": "2025-12-23T18:07:00.645312", "MEAN_MOTION": 1.00272195, "ECCENTRICITY": 0.0003691, "INCLINATION": 1.3513, "RA_OF_ASC_NODE": 84.936, "ARG_OF_PERICENTER": 185.7974, "MEAN_ANOMALY": 61.8505, "EPHEMERIS_TYPE": 0, "CLASSIFICATION_TYPE": "U", "NORAD_CAT_ID": 37392, "ELEMENT_SET_NO": 999, "REV_AT_EPOCH": 5152, "BSTAR": 0, "MEAN_MOTION_DOT": -2.04e-06, "MEAN_MOTION_DDOT": 0}, "tle": {"line1": "1 37392U 11016A   25357.75486858 -.00000204  00000+0  00000+0 0  9991", "line2": "2 37392   1.3513  84.9360 0003691 185.7974  61.8505  1.00272195 51524"}}, "geometry": {"type": "Point", "coordinates": [119.5718867828027, 0.7905679718912905]}}]}